{"type": "FeatureCollection", "source": "Natural Earth 1:10m populated places, public domain; current city reference points, not historical addresses or ports.", "features": [{"type": "Feature", "properties": {"SCALERANK": 7, "NATSCALE": 20, "LABELRANK": 8, "FEATURECLA": "Populated place", "NAME": "Bella Unión", "NAMEPAR": null, "NAMEALT": null, "NAMEASCII": "Bella Union", "ADM0CAP": 0, "CAPIN": null, "WORLDCITY": 0, "MEGACITY": 0, "SOV0NAME": "Uruguay", "SOV_A3": "URY", "ADM0NAME": "Uruguay", "ADM0_A3": "URY", "ADM1NAME": "Artigas", "ISO_A2": "UY", "NOTE": null, "LATITUDE": -30.259614, "LONGITUDE": -57.599957, "POP_MAX": 22723, "POP_MIN": 13171, "POP_OTHER": 22723, "RANK_MAX": 7, "RANK_MIN": 6, "MEGANAME": null, "LS_NAME": "Bella Union", "MAX_POP10": 22723, "MAX_POP20": 22723, "MAX_POP50": 0, "MAX_POP300": 0, "MAX_POP310": 0, "MAX_NATSCA": 20, "MIN_AREAKM": 7, "MAX_AREAKM": 7, "MIN_AREAMI": 3, "MAX_AREAMI": 3, "MIN_PERKM": 14, "MAX_PERKM": 14, "MIN_PERMI": 9, "MAX_PERMI": 9, "MIN_BBXMIN": -57.616667, "MAX_BBXMIN": -57.616667, "MIN_BBXMAX": -57.575, "MAX_BBXMAX": -57.575, "MIN_BBYMIN": -30.266667, "MAX_BBYMIN": -30.266667, "MIN_BBYMAX": -30.241667, "MAX_BBYMAX": -30.241667, "MEAN_BBXC": -57.594907, "MEAN_BBYC": -30.256019, "TIMEZONE": "America/Montevideo", "UN_FID": 0, "POP1950": 0, "POP1955": 0, "POP1960": 0, "POP1965": 0, "POP1970": 0, "POP1975": 0, "POP1980": 0, "POP1985": 0, "POP1990": 0, "POP1995": 0, "POP2000": 0, "POP2005": 0, "POP2010": 0, "POP2015": 0, "POP2020": 0, "POP2025": 0, "POP2050": 0, "MIN_ZOOM": 6.7, "WIKIDATAID": "Q815782", "WOF_ID": 421169069, "CAPALT": 0, "NAME_EN": "Bella Unión", "NAME_DE": "Bella Unión", "NAME_ES": "Bella Unión", "NAME_FR": "Bella Unión", "NAME_PT": "Bella Unión", "NAME_RU": "Белья-Уньон", "NAME_ZH": "貝亞烏尼翁", "LABEL": null, "NAME_AR": "بيلا يونيون", "NAME_BN": "বেল্লা ইউনিয়ন", "NAME_EL": "Μπέλα Γιουνιόν", "NAME_HI": "बेला यूनिया", "NAME_HU": "Bella Unión", "NAME_ID": "Bella Unión", "NAME_IT": "Bella Unión", "NAME_JA": "ベジャ・ウニオン", "NAME_KO": "베야우니온", "NAME_NL": "Bella Unión", "NAME_PL": "Bella Unión", "NAME_SV": "Bella Unión", "NAME_TR": "Bella Union", "NAME_VI": "Bella Union", "NE_ID": 1159132411, "NAME_FA": "بلا یونیون", "NAME_HE": "בלה יוניון", "NAME_UK": "Белья Уніон", "NAME_UR": "بیا اونین", "NAME_ZHT": "貝亞烏尼翁", "GEONAMESID": 3443631, "FCLASS_ISO": null, "FCLASS_US": null, "FCLASS_FR": null, "FCLASS_RU": null, "FCLASS_ES": null, "FCLASS_CN": null, "FCLASS_TW": null, "FCLASS_IN": null, "FCLASS_NP": null, "FCLASS_PK": null, "FCLASS_DE": null, "FCLASS_GB": null, "FCLASS_BR": null, "FCLASS_IL": null, "FCLASS_PS": null, "FCLASS_SA": null, "FCLASS_EG": null, "FCLASS_MA": null, "FCLASS_PT": null, "FCLASS_AR": null, "FCLASS_JP": null, "FCLASS_KO": null, "FCLASS_VN": null, "FCLASS_TR": null, "FCLASS_ID": null, "FCLASS_PL": null, "FCLASS_GR": null, "FCLASS_IT": null, "FCLASS_NL": null, "FCLASS_SE": null, "FCLASS_BD": null, "FCLASS_UA": null, "FCLASS_TLC": null}, "bbox": [-57.599957, -30.259614, -57.599957, -30.259614], "geometry": {"type": "Point", "coordinates": [-57.599957, -30.259614]}}, {"type": "Feature", "properties": {"SCALERANK": 7, "NATSCALE": 20, "LABELRANK": 1, "FEATURECLA": "Populated place", "NAME": "Uruguaiana", "NAMEPAR": null, "NAMEALT": null, "NAMEASCII": "Uruguaiana", "ADM0CAP": 0, "CAPIN": null, "WORLDCITY": 0, "MEGACITY": 0, "SOV0NAME": "Brazil", "SOV_A3": "BRA", "ADM0NAME": "Brazil", "ADM0_A3": "BRA", "ADM1NAME": "Rio Grande do Sul", "ISO_A2": "BR", "NOTE": null, "LATITUDE": -29.769618, "LONGITUDE": -57.089988, "POP_MAX": 123480, "POP_MIN": 71993, "POP_OTHER": 71676, "RANK_MAX": 9, "RANK_MIN": 8, "MEGANAME": null, "LS_NAME": "Uruguaiana", "MAX_POP10": 71993, "MAX_POP20": 71993, "MAX_POP50": 0, "MAX_POP300": 0, "MAX_POP310": 0, "MAX_NATSCA": 20, "MIN_AREAKM": 45, "MAX_AREAKM": 45, "MIN_AREAMI": 17, "MAX_AREAMI": 17, "MIN_PERKM": 44, "MAX_PERKM": 44, "MIN_PERMI": 27, "MAX_PERMI": 27, "MIN_BBXMIN": -57.116667, "MAX_BBXMIN": -57.116667, "MIN_BBXMAX": -57, "MAX_BBXMAX": -57, "MIN_BBYMIN": -29.8, "MAX_BBYMIN": -29.8, "MIN_BBYMAX": -29.741667, "MAX_BBYMAX": -29.741667, "MEAN_BBXC": -57.064722, "MEAN_BBYC": -29.76875, "TIMEZONE": "America/Sao_Paulo", "UN_FID": 0, "POP1950": 0, "POP1955": 0, "POP1960": 0, "POP1965": 0, "POP1970": 0, "POP1975": 0, "POP1980": 0, "POP1985": 0, "POP1990": 0, "POP1995": 0, "POP2000": 0, "POP2005": 0, "POP2010": 0, "POP2015": 0, "POP2020": 0, "POP2025": 0, "POP2050": 0, "MIN_ZOOM": 6.7, "WIKIDATAID": "Q622823", "WOF_ID": 101958221, "CAPALT": 0, "NAME_EN": "Uruguaiana", "NAME_DE": "Uruguaiana", "NAME_ES": "Uruguayana", "NAME_FR": "Uruguaiana", "NAME_PT": "Uruguaiana", "NAME_RU": "Уругуаяна", "NAME_ZH": "乌鲁瓜亚纳", "LABEL": null, "NAME_AR": "أوروغوايانا", "NAME_BN": "উরুগুয়াইয়ানা", "NAME_EL": "Ουρουγκουάιανα", "NAME_HI": "उरूगुआइयाना", "NAME_HU": "Uruguaiana", "NAME_ID": "Uruguaiana", "NAME_IT": "Uruguaiana", "NAME_JA": "ウルグアイアーナ", "NAME_KO": "우루구아이아나", "NAME_NL": "Uruguaiana", "NAME_PL": "Uruguaiana", "NAME_SV": "Uruguaiana", "NAME_TR": "Uruguaiana", "NAME_VI": "Uruguaiana", "NE_ID": 1159143405, "NAME_FA": "اروگوایانا", "NAME_HE": "אורוגאיאנה", "NAME_UK": "Уругваяна", "NAME_UR": "وروجوایانا", "NAME_ZHT": "烏魯瓜亞納", "GEONAMESID": 3445679, "FCLASS_ISO": null, "FCLASS_US": null, "FCLASS_FR": null, "FCLASS_RU": null, "FCLASS_ES": null, "FCLASS_CN": null, "FCLASS_TW": null, "FCLASS_IN": null, "FCLASS_NP": null, "FCLASS_PK": null, "FCLASS_DE": null, "FCLASS_GB": null, "FCLASS_BR": null, "FCLASS_IL": null, "FCLASS_PS": null, "FCLASS_SA": null, "FCLASS_EG": null, "FCLASS_MA": null, "FCLASS_PT": null, "FCLASS_AR": null, "FCLASS_JP": null, "FCLASS_KO": null, "FCLASS_VN": null, "FCLASS_TR": null, "FCLASS_ID": null, "FCLASS_PL": null, "FCLASS_GR": null, "FCLASS_IT": null, "FCLASS_NL": null, "FCLASS_SE": null, "FCLASS_BD": null, "FCLASS_UA": null, "FCLASS_TLC": null}, "bbox": [-57.089988, -29.769618, -57.089988, -29.769618], "geometry": {"type": "Point", "coordinates": [-57.089988, -29.769618]}}, {"type": "Feature", "properties": {"SCALERANK": 7, "NATSCALE": 20, "LABELRANK": 3, "FEATURECLA": "Populated place", "NAME": "Concordia", "NAMEPAR": null, "NAMEALT": null, "NAMEASCII": "Concordia", "ADM0CAP": 0, "CAPIN": null, "WORLDCITY": 0, "MEGACITY": 0, "SOV0NAME": "Argentina", "SOV_A3": "ARG", "ADM0NAME": "Argentina", "ADM0_A3": "ARG", "ADM1NAME": "Entre Ríos", "ISO_A2": "AR", "NOTE": null, "LATITUDE": -31.389571, "LONGITUDE": -58.029983, "POP_MAX": 145210, "POP_MIN": 120311, "POP_OTHER": 112736, "RANK_MAX": 9, "RANK_MIN": 9, "MEGANAME": null, "LS_NAME": "Concordia1", "MAX_POP10": 120311, "MAX_POP20": 120311, "MAX_POP50": 0, "MAX_POP300": 0, "MAX_POP310": 0, "MAX_NATSCA": 20, "MIN_AREAKM": 34, "MAX_AREAKM": 34, "MIN_AREAMI": 13, "MAX_AREAMI": 13, "MIN_PERKM": 29, "MAX_PERKM": 29, "MIN_PERMI": 18, "MAX_PERMI": 18, "MIN_BBXMIN": -58.066667, "MAX_BBXMIN": -58.066667, "MIN_BBXMAX": -57.999211, "MAX_BBXMAX": -57.999211, "MIN_BBYMIN": -31.416667, "MAX_BBYMIN": -31.416667, "MIN_BBYMAX": -31.35, "MAX_BBYMAX": -31.35, "MEAN_BBXC": -58.027517, "MEAN_BBYC": -31.37973, "TIMEZONE": "America/Argentina/Cordoba", "UN_FID": 0, "POP1950": 0, "POP1955": 0, "POP1960": 0, "POP1965": 0, "POP1970": 0, "POP1975": 0, "POP1980": 0, "POP1985": 0, "POP1990": 0, "POP1995": 0, "POP2000": 0, "POP2005": 0, "POP2010": 0, "POP2015": 0, "POP2020": 0, "POP2025": 0, "POP2050": 0, "MIN_ZOOM": 6.7, "WIKIDATAID": "Q52578", "WOF_ID": 421174851, "CAPALT": 0, "NAME_EN": "Concordia", "NAME_DE": "Concordia", "NAME_ES": "Concordia", "NAME_FR": "Concordia", "NAME_PT": "Concordia", "NAME_RU": "Конкордия", "NAME_ZH": "康科迪亚", "LABEL": null, "NAME_AR": "كونكورديا", "NAME_BN": "কনকর্ডিয়া", "NAME_EL": "Κονκόρδια", "NAME_HI": "कॉनकॉर्डिया", "NAME_HU": "Concordia megye", "NAME_ID": "Concordia", "NAME_IT": "Concordia", "NAME_JA": "コンコルディア", "NAME_KO": "콩코르디아", "NAME_NL": "Concordia", "NAME_PL": "Concordia", "NAME_SV": "Concordia", "NAME_TR": "Concordia", "NAME_VI": "Concordia", "NE_ID": 1159144357, "NAME_FA": "کونکوردیا", "NAME_HE": "קונקורדיה", "NAME_UK": "Конкордія", "NAME_UR": "کونکوردیا", "NAME_ZHT": "康科迪亚", "GEONAMESID": 3435261, "FCLASS_ISO": null, "FCLASS_US": null, "FCLASS_FR": null, "FCLASS_RU": null, "FCLASS_ES": null, "FCLASS_CN": null, "FCLASS_TW": null, "FCLASS_IN": null, "FCLASS_NP": null, "FCLASS_PK": null, "FCLASS_DE": null, "FCLASS_GB": null, "FCLASS_BR": null, "FCLASS_IL": null, "FCLASS_PS": null, "FCLASS_SA": null, "FCLASS_EG": null, "FCLASS_MA": null, "FCLASS_PT": null, "FCLASS_AR": null, "FCLASS_JP": null, "FCLASS_KO": null, "FCLASS_VN": null, "FCLASS_TR": null, "FCLASS_ID": null, "FCLASS_PL": null, "FCLASS_GR": null, "FCLASS_IT": null, "FCLASS_NL": null, "FCLASS_SE": null, "FCLASS_BD": null, "FCLASS_UA": null, "FCLASS_TLC": null}, "bbox": [-58.029983, -31.389571, -58.029983, -31.389571], "geometry": {"type": "Point", "coordinates": [-58.029983, -31.389571]}}, {"type": "Feature", "properties": {"SCALERANK": 6, "NATSCALE": 30, "LABELRANK": 8, "FEATURECLA": "Admin-1 capital", "NAME": "Salto", "NAMEPAR": null, "NAMEALT": null, "NAMEASCII": "Salto", "ADM0CAP": 0, "CAPIN": null, "WORLDCITY": 0, "MEGACITY": 0, "SOV0NAME": "Uruguay", "SOV_A3": "URY", "ADM0NAME": "Uruguay", "ADM0_A3": "URY", "ADM1NAME": "Salto", "ISO_A2": "UY", "NOTE": null, "LATITUDE": -31.390346, "LONGITUDE": -57.968695, "POP_MAX": 105690, "POP_MIN": 99823, "POP_OTHER": 105261, "RANK_MAX": 9, "RANK_MIN": 8, "MEGANAME": null, "LS_NAME": "Salto", "MAX_POP10": 105690, "MAX_POP20": 105690, "MAX_POP50": 0, "MAX_POP300": 0, "MAX_POP310": 0, "MAX_NATSCA": 20, "MIN_AREAKM": 28, "MAX_AREAKM": 28, "MIN_AREAMI": 11, "MAX_AREAMI": 11, "MIN_PERKM": 31, "MAX_PERKM": 31, "MIN_PERMI": 19, "MAX_PERMI": 19, "MIN_BBXMIN": -57.999408, "MAX_BBXMIN": -57.999408, "MIN_BBXMAX": -57.925, "MAX_BBXMAX": -57.925, "MIN_BBYMIN": -31.416667, "MAX_BBYMIN": -31.416667, "MIN_BBYMAX": -31.366667, "MAX_BBYMAX": -31.366667, "MEAN_BBXC": -57.964164, "MEAN_BBYC": -31.389535, "TIMEZONE": "America/Montevideo", "UN_FID": 0, "POP1950": 0, "POP1955": 0, "POP1960": 0, "POP1965": 0, "POP1970": 0, "POP1975": 0, "POP1980": 0, "POP1985": 0, "POP1990": 0, "POP1995": 0, "POP2000": 0, "POP2005": 0, "POP2010": 0, "POP2015": 0, "POP2020": 0, "POP2025": 0, "POP2050": 0, "MIN_ZOOM": 6, "WIKIDATAID": "Q335506", "WOF_ID": 1141908691, "CAPALT": 0, "NAME_EN": "Salto", "NAME_DE": "Salto", "NAME_ES": "Salto", "NAME_FR": "Salto", "NAME_PT": "Salto", "NAME_RU": "Сальто", "NAME_ZH": "萨尔托", "LABEL": null, "NAME_AR": "سالتو", "NAME_BN": "সালতো", "NAME_EL": "Σάλτο", "NAME_HI": "साल्ट", "NAME_HU": "Salto", "NAME_ID": "Salto", "NAME_IT": "Salto", "NAME_JA": "サルト", "NAME_KO": "살토", "NAME_NL": "Salto", "NAME_PL": "Salto", "NAME_SV": "Salto", "NAME_TR": "Salto", "NAME_VI": "Salto", "NE_ID": 1159147337, "NAME_FA": "سالتو", "NAME_HE": "סלטו", "NAME_UK": "Сальто", "NAME_UR": "سالتو", "NAME_ZHT": "薩爾托", "GEONAMESID": 3440714, "FCLASS_ISO": null, "FCLASS_US": null, "FCLASS_FR": null, "FCLASS_RU": null, "FCLASS_ES": null, "FCLASS_CN": null, "FCLASS_TW": null, "FCLASS_IN": null, "FCLASS_NP": null, "FCLASS_PK": null, "FCLASS_DE": null, "FCLASS_GB": null, "FCLASS_BR": null, "FCLASS_IL": null, "FCLASS_PS": null, "FCLASS_SA": null, "FCLASS_EG": null, "FCLASS_MA": null, "FCLASS_PT": null, "FCLASS_AR": null, "FCLASS_JP": null, "FCLASS_KO": null, "FCLASS_VN": null, "FCLASS_TR": null, "FCLASS_ID": null, "FCLASS_PL": null, "FCLASS_GR": null, "FCLASS_IT": null, "FCLASS_NL": null, "FCLASS_SE": null, "FCLASS_BD": null, "FCLASS_UA": null, "FCLASS_TLC": null}, "bbox": [-57.968694, -31.390346, -57.968694, -31.390346], "geometry": {"type": "Point", "coordinates": [-57.968694, -31.390346]}}, {"type": "Feature", "properties": {"SCALERANK": 3, "NATSCALE": 110, "LABELRANK": 8, "FEATURECLA": "Admin-0 capital", "NAME": "Montevideo", "NAMEPAR": null, "NAMEALT": null, "NAMEASCII": "Montevideo", "ADM0CAP": 1, "CAPIN": null, "WORLDCITY": 0, "MEGACITY": 1, "SOV0NAME": "Uruguay", "SOV_A3": "URY", "ADM0NAME": "Uruguay", "ADM0_A3": "URY", "ADM1NAME": "Montevideo", "ISO_A2": "UY", "NOTE": null, "LATITUDE": -34.856096, "LONGITUDE": -56.172998, "POP_MAX": 1513000, "POP_MIN": 5324, "POP_OTHER": 1276128, "RANK_MAX": 12, "RANK_MIN": 5, "MEGANAME": "Montevideo", "LS_NAME": "Montevideo", "MAX_POP10": 1381747, "MAX_POP20": 1381747, "MAX_POP50": 1381747, "MAX_POP300": 1381747, "MAX_POP310": 0, "MAX_NATSCA": 100, "MIN_AREAKM": 347, "MAX_AREAKM": 347, "MIN_AREAMI": 134, "MAX_AREAMI": 134, "MIN_PERKM": 266, "MAX_PERKM": 266, "MIN_PERMI": 165, "MAX_PERMI": 165, "MIN_BBXMIN": -56.291667, "MAX_BBXMIN": -56.291667, "MIN_BBXMAX": -55.8, "MAX_BBXMAX": -55.8, "MIN_BBYMIN": -34.933333, "MAX_BBYMIN": -34.933333, "MIN_BBYMAX": -34.65, "MAX_BBYMAX": -34.65, "MEAN_BBXC": -56.12273, "MEAN_BBYC": -34.828337, "TIMEZONE": "America/Chicago", "UN_FID": 579, "POP1950": 1212, "POP1955": 1248, "POP1960": 1285, "POP1965": 1323, "POP1970": 1362, "POP1975": 1403, "POP1980": 1454, "POP1985": 1508, "POP1990": 1546, "POP1995": 1584, "POP2000": 1561, "POP2005": 1525, "POP2010": 1513, "POP2015": 1504, "POP2020": 1506, "POP2025": 1515, "POP2050": 1520, "MIN_ZOOM": 4, "WIKIDATAID": "Q1335", "WOF_ID": 890437681, "CAPALT": 0, "NAME_EN": "Montevideo", "NAME_DE": "Montevideo", "NAME_ES": "Montevideo", "NAME_FR": "Montevideo", "NAME_PT": "Montevidéu", "NAME_RU": "Монтевидео", "NAME_ZH": "蒙得维的亚", "LABEL": null, "NAME_AR": "مونتفيدو", "NAME_BN": "মোন্তেবিদেও", "NAME_EL": "Μοντεβιδέο", "NAME_HI": "मोण्टेवीडियो", "NAME_HU": "Montevideo", "NAME_ID": "Montevideo", "NAME_IT": "Montevideo", "NAME_JA": "モンテビデオ", "NAME_KO": "몬테비데오", "NAME_NL": "Montevideo", "NAME_PL": "Montevideo", "NAME_SV": "Montevideo", "NAME_TR": "Montevideo", "NAME_VI": "Montevideo", "NE_ID": 1159150469, "NAME_FA": "مونتهویدئو", "NAME_HE": "מונטווידאו", "NAME_UK": "Монтевідео", "NAME_UR": "مونٹیویڈیو", "NAME_ZHT": "蒙特維多", "GEONAMESID": 5038018, "FCLASS_ISO": null, "FCLASS_US": null, "FCLASS_FR": null, "FCLASS_RU": null, "FCLASS_ES": null, "FCLASS_CN": null, "FCLASS_TW": null, "FCLASS_IN": null, "FCLASS_NP": null, "FCLASS_PK": null, "FCLASS_DE": null, "FCLASS_GB": null, "FCLASS_BR": null, "FCLASS_IL": null, "FCLASS_PS": null, "FCLASS_SA": null, "FCLASS_EG": null, "FCLASS_MA": null, "FCLASS_PT": null, "FCLASS_AR": null, "FCLASS_JP": null, "FCLASS_KO": null, "FCLASS_VN": null, "FCLASS_TR": null, "FCLASS_ID": null, "FCLASS_PL": null, "FCLASS_GR": null, "FCLASS_IT": null, "FCLASS_NL": null, "FCLASS_SE": null, "FCLASS_BD": null, "FCLASS_UA": null, "FCLASS_TLC": null}, "bbox": [-56.186823, -34.905376, -56.186823, -34.905376], "geometry": {"type": "Point", "coordinates": [-56.186823, -34.905376]}}, {"type": "Feature", "properties": {"SCALERANK": 1, "NATSCALE": 300, "LABELRANK": 3, "FEATURECLA": "Admin-0 capital", "NAME": "Buenos Aires", "NAMEPAR": null, "NAMEALT": null, "NAMEASCII": "Buenos Aires", "ADM0CAP": 1, "CAPIN": null, "WORLDCITY": 1, "MEGACITY": 1, "SOV0NAME": "Argentina", "SOV_A3": "ARG", "ADM0NAME": "Argentina", "ADM0_A3": "ARG", "ADM1NAME": "Ciudad de Buenos Aires", "ISO_A2": "AR", "NOTE": null, "LATITUDE": -34.600556, "LONGITUDE": -58.399477, "POP_MAX": 12795000, "POP_MIN": 10929146, "POP_OTHER": 10271457, "RANK_MAX": 14, "RANK_MIN": 14, "MEGANAME": "Buenos Aires", "LS_NAME": "Buenos Aires", "MAX_POP10": 10929146, "MAX_POP20": 10991915, "MAX_POP50": 12611862, "MAX_POP300": 12611862, "MAX_POP310": 12611862, "MAX_NATSCA": 300, "MIN_AREAKM": 1675, "MAX_AREAKM": 2447, "MIN_AREAMI": 647, "MAX_AREAMI": 945, "MIN_PERKM": 570, "MAX_PERKM": 1064, "MIN_PERMI": 354, "MAX_PERMI": 661, "MIN_BBXMIN": -59.016667, "MAX_BBXMIN": -58.757731, "MIN_BBXMAX": -58.175, "MAX_BBXMAX": -57.816667, "MIN_BBYMIN": -35.008333, "MAX_BBYMIN": -35.008333, "MIN_BBYMAX": -34.375, "MAX_BBYMAX": -34.366667, "MEAN_BBXC": -58.50845, "MEAN_BBYC": -34.681331, "TIMEZONE": "America/Argentina/Buenos_Aires", "UN_FID": 201, "POP1950": 5098, "POP1955": 5799, "POP1960": 6598, "POP1965": 7317, "POP1970": 8105, "POP1975": 8745, "POP1980": 9422, "POP1985": 9959, "POP1990": 10513, "POP1995": 11154, "POP2000": 11847, "POP2005": 12553, "POP2010": 12795, "POP2015": 13089, "POP2020": 13432, "POP2025": 13653, "POP2050": 13768, "MIN_ZOOM": 2.1, "WIKIDATAID": "Q1486", "WOF_ID": 421174285, "CAPALT": 0, "NAME_EN": "Buenos Aires", "NAME_DE": "Buenos Aires", "NAME_ES": "Buenos Aires", "NAME_FR": "Buenos Aires", "NAME_PT": "Buenos Aires", "NAME_RU": "Буэнос-Айрес", "NAME_ZH": "布宜诺斯艾利斯", "LABEL": null, "NAME_AR": "بوينس آيرس", "NAME_BN": "বুয়েনোস আইরেস", "NAME_EL": "Μπουένος Άιρες", "NAME_HI": "ब्यूनस आयर्स", "NAME_HU": "Buenos Aires", "NAME_ID": "Buenos Aires", "NAME_IT": "Buenos Aires", "NAME_JA": "ブエノスアイレス", "NAME_KO": "부에노스아이레스", "NAME_NL": "Buenos Aires", "NAME_PL": "Buenos Aires", "NAME_SV": "Buenos Aires", "NAME_TR": "Buenos Aires", "NAME_VI": "Buenos Aires", "NE_ID": 1159151559, "NAME_FA": "بوئنوس آیرس", "NAME_HE": "בואנוס איירס", "NAME_UK": "Буенос-Айрес", "NAME_UR": "بیونس آئرس", "NAME_ZHT": "布宜諾斯艾利斯", "GEONAMESID": 3435910, "FCLASS_ISO": null, "FCLASS_US": null, "FCLASS_FR": null, "FCLASS_RU": null, "FCLASS_ES": null, "FCLASS_CN": null, "FCLASS_TW": null, "FCLASS_IN": null, "FCLASS_NP": null, "FCLASS_PK": null, "FCLASS_DE": null, "FCLASS_GB": null, "FCLASS_BR": null, "FCLASS_IL": null, "FCLASS_PS": null, "FCLASS_SA": null, "FCLASS_EG": null, "FCLASS_MA": null, "FCLASS_PT": null, "FCLASS_AR": null, "FCLASS_JP": null, "FCLASS_KO": null, "FCLASS_VN": null, "FCLASS_TR": null, "FCLASS_ID": null, "FCLASS_PL": null, "FCLASS_GR": null, "FCLASS_IT": null, "FCLASS_NL": null, "FCLASS_SE": null, "FCLASS_BD": null, "FCLASS_UA": null, "FCLASS_TLC": null}, "bbox": [-58.432513, -34.610715, -58.432513, -34.610715], "geometry": {"type": "Point", "coordinates": [-58.432513, -34.610715]}}]}