{"type": "FeatureCollection", "source": "Natural Earth 1:10m rivers and lake centerlines, public domain; preserved original vertices; geographic current reference, not historical navigation itinerary.", "features": [{"type": "Feature", "properties": {"dissolve": "293River", "scalerank": 6.0, "featurecla": "River", "name": "Uruguay", "name_alt": null, "rivernum": 293, "note": null, "min_zoom": 5.0, "name_en": "Uruguay", "min_label": 6.0}, "bbox": [-58.203359, -32.444675, -49.736724, -27.072117], "geometry": {"type": "MultiLineString", "coordinates": [[[-49.736724, -28.511407], [-49.742055, -28.50213], [-49.752756, -28.476495], [-49.757192, -28.470554], [-49.766835, -28.472182], [-49.771718, -28.481866], [-49.775258, -28.492608], [-49.781117, -28.497735], [-49.816762, -28.495782], [-49.833974, -28.491713], [-49.846588, -28.484063], [-49.853993, -28.473972], [-49.858998, -28.464207], [-49.864369, -28.455906], [-49.87328, -28.449884], [-49.883453, -28.45086], [-49.918935, -28.463718], [-49.931874, -28.466729], [-49.936838, -28.471531], [-49.941355, -28.471531], [-49.953033, -28.459893], [-49.963816, -28.451593], [-49.973053, -28.450535], [-50.001332, -28.460382], [-50.02477, -28.476576], [-50.038157, -28.48032], [-50.047922, -28.479832], [-50.0572, -28.477879], [-50.080434, -28.475763], [-50.100413, -28.471368], [-50.110707, -28.470554], [-50.114858, -28.464776], [-50.117299, -28.452651], [-50.122304, -28.442722], [-50.134023, -28.44256], [-50.14391, -28.455418], [-50.143544, -28.471612], [-50.145334, -28.483575], [-50.161936, -28.484063], [-50.175649, -28.476983], [-50.199086, -28.456964], [-50.217152, -28.449884], [-50.318186, -28.43849], [-50.331532, -28.441339], [-50.346832, -28.449884], [-50.358998, -28.433038], [-50.386952, -28.424737], [-50.446441, -28.422052], [-50.452504, -28.419285], [-50.472279, -28.406183], [-50.484039, -28.402195], [-50.499216, -28.401218], [-50.514027, -28.403009], [-50.527699, -28.407647], [-50.539296, -28.415867], [-50.58023, -28.387872], [-50.61266, -28.378269], [-50.621205, -28.3742], [-50.625722, -28.368178], [-50.641713, -28.34002], [-50.675852, -28.298517], [-50.690541, -28.272312], [-50.69636, -28.264337], [-50.70641, -28.257013], [-50.73351, -28.244643], [-50.74413, -28.237156], [-50.754547, -28.215753], [-50.774403, -28.156101], [-50.792551, -28.134129], [-50.804351, -28.139174], [-50.812327, -28.133803], [-50.819732, -28.125421], [-50.830068, -28.121026], [-50.837758, -28.124526], [-50.845326, -28.131199], [-50.854563, -28.134129], [-50.867665, -28.127293], [-50.86974, -28.118341], [-50.869008, -28.104425], [-50.870107, -28.091729], [-50.877878, -28.086277], [-50.892568, -28.082533], [-50.892323, -28.074151], [-50.881296, -28.058282], [-50.881012, -28.038425], [-50.886301, -28.025323], [-50.915395, -27.997491], [-50.945465, -27.961765], [-50.963735, -27.950128], [-50.984283, -27.955906], [-51.012522, -27.934747], [-51.050608, -27.870294], [-51.07372, -27.839207], [-51.077382, -27.832208], [-51.077992, -27.825698], [-51.080678, -27.82114], [-51.103261, -27.816257], [-51.121775, -27.802097], [-51.149322, -27.794285], [-51.173818, -27.772312], [-51.189768, -27.764662], [-51.198842, -27.765802], [-51.207957, -27.769464], [-51.217193, -27.771661], [-51.226959, -27.767755], [-51.26179, -27.733412], [-51.269887, -27.727472], [-51.287343, -27.720554], [-51.292144, -27.716241], [-51.290761, -27.71087], [-51.286529, -27.701593], [-51.283559, -27.690932], [-51.285959, -27.681573], [-51.302439, -27.673272], [-51.320302, -27.674005], [-51.334706, -27.669122], [-51.340566, -27.643976], [-51.346995, -27.627293], [-51.361684, -27.632013], [-51.388417, -27.654799], [-51.396677, -27.646987], [-51.398997, -27.639174], [-51.400299, -27.631524], [-51.405751, -27.623875], [-51.416005, -27.618504], [-51.425364, -27.616876], [-51.434193, -27.614435], [-51.442983, -27.606378], [-51.452789, -27.585463], [-51.456451, -27.570652], [-51.466298, -27.5617], [-51.494862, -27.558608], [-51.514272, -27.562921], [-51.533559, -27.569838], [-51.551381, -27.571303], [-51.566518, -27.558608], [-51.566233, -27.550144], [-51.559275, -27.528253], [-51.5631, -27.523858], [-51.596181, -27.53753], [-51.601308, -27.534112], [-51.602203, -27.519464], [-51.605824, -27.501804], [-51.613026, -27.490167], [-51.624867, -27.493097], [-51.633778, -27.50392], [-51.637685, -27.510431], [-51.643178, -27.510919], [-51.656565, -27.503351], [-51.661, -27.496026], [-51.661244, -27.48683], [-51.663971, -27.479181], [-51.675771, -27.476088], [-51.686879, -27.479506], [-51.694407, -27.487726], [-51.707428, -27.507175], [-51.717478, -27.510675], [-51.725942, -27.50392], [-51.733713, -27.494561], [-51.741567, -27.48976], [-51.76183, -27.488783], [-51.779205, -27.490086], [-51.787262, -27.499688], [-51.779408, -27.523858], [-51.811269, -27.523451], [-51.829172, -27.52101], [-51.853749, -27.513116], [-51.856801, -27.508966], [-51.847239, -27.491876], [-51.848744, -27.484877], [-51.854115, -27.479506], [-51.861318, -27.476088], [-51.86913, -27.508803], [-51.877349, -27.52044], [-51.892405, -27.514011], [-51.902699, -27.497898], [-51.907786, -27.465509], [-51.916005, -27.449395], [-51.923777, -27.457371], [-51.933949, -27.463881], [-51.945383, -27.466485], [-51.956899, -27.462416], [-51.931142, -27.446222], [-51.95287, -27.424493], [-52.012196, -27.39422], [-51.998525, -27.38836], [-51.983022, -27.38657], [-51.950754, -27.387221], [-51.965077, -27.368504], [-52.009104, -27.359308], [-52.018381, -27.34295], [-52.018463, -27.330499], [-52.019765, -27.328627], [-52.023915, -27.331394], [-52.097808, -27.332045], [-52.111277, -27.329115], [-52.113352, -27.32171], [-52.107777, -27.30169], [-52.11734, -27.292657], [-52.138499, -27.295912], [-52.159657, -27.295424], [-52.16926, -27.274754], [-52.179189, -27.26808], [-52.200999, -27.285007], [-52.231923, -27.319024], [-52.247711, -27.313002], [-52.26065, -27.296401], [-52.268544, -27.279148], [-52.269154, -27.271336], [-52.246693, -27.267267], [-52.241607, -27.258152], [-52.251291, -27.248549], [-52.272898, -27.243341], [-52.297841, -27.245457], [-52.308949, -27.254571], [-52.308909, -27.270359], [-52.30016, -27.291843], [-52.314768, -27.296401], [-52.322011, -27.292169], [-52.326894, -27.284356], [-52.33434, -27.278171], [-52.345204, -27.277358], [-52.36148, -27.279148], [-52.376291, -27.282892], [-52.382721, -27.288018], [-52.384755, -27.279311], [-52.393666, -27.256524], [-52.395741, -27.246759], [-52.398997, -27.242527], [-52.405995, -27.238946], [-52.413035, -27.239272], [-52.416249, -27.246759], [-52.415028, -27.252374], [-52.413035, -27.256199], [-52.412587, -27.261244], [-52.416249, -27.271336], [-52.427235, -27.26157], [-52.436594, -27.240086], [-52.444203, -27.229669], [-52.446685, -27.224135], [-52.446278, -27.219252], [-52.447987, -27.21616], [-52.457183, -27.215997], [-52.464752, -27.220147], [-52.471506, -27.228855], [-52.47643, -27.238702], [-52.478342, -27.246759], [-52.485748, -27.257175], [-52.502512, -27.257257], [-52.529856, -27.250177], [-52.533193, -27.247979], [-52.539662, -27.238702], [-52.543202, -27.236505], [-52.551096, -27.237644], [-52.567047, -27.243341], [-52.582102, -27.246433], [-52.609039, -27.255304], [-52.621693, -27.257664], [-52.637929, -27.257013], [-52.661204, -27.251479], [-52.673492, -27.250177], [-52.677887, -27.256768], [-52.688547, -27.268569], [-52.69933, -27.273858], [-52.704213, -27.260675], [-52.708323, -27.24448], [-52.717885, -27.237156], [-52.729237, -27.238946], [-52.738393, -27.250177], [-52.769521, -27.222589], [-52.785634, -27.212905], [-52.810414, -27.209161], [-52.827504, -27.200046], [-52.835194, -27.180515], [-52.845082, -27.163507], [-52.868764, -27.161472], [-52.8815, -27.169936], [-52.8933, -27.183933], [-52.907338, -27.19671], [-52.926747, -27.202325], [-52.939443, -27.191257], [-52.94107, -27.171401], [-52.944936, -27.163507], [-52.964263, -27.188165], [-52.968821, -27.198256], [-52.97175, -27.208917], [-52.976145, -27.217787], [-52.984771, -27.223484], [-52.994293, -27.222101], [-53.00121, -27.214858], [-53.00414, -27.205906], [-53.002187, -27.198907], [-52.990346, -27.184259], [-52.984446, -27.167494], [-52.98644, -27.152032], [-52.998443, -27.140313], [-53.002553, -27.142999], [-53.011057, -27.146987], [-53.02009, -27.14601], [-53.025746, -27.133477], [-53.023874, -27.1242], [-53.01769, -27.113702], [-53.002187, -27.09588], [-53.002675, -27.087742], [-53.01769, -27.083185], [-53.037831, -27.085951], [-53.0537, -27.099298], [-53.060374, -27.119317], [-53.062978, -27.136407], [-53.069692, -27.150567], [-53.08849, -27.161472], [-53.109486, -27.163751], [-53.124664, -27.157078], [-53.149281, -27.133477], [-53.158274, -27.162042], [-53.165273, -27.174737], [-53.176625, -27.18198], [-53.18456, -27.179701], [-53.204091, -27.164972], [-53.217519, -27.161472], [-53.243235, -27.169122], [-53.289703, -27.197686], [-53.314361, -27.195489], [-53.288889, -27.149102], [-53.277577, -27.119561], [-53.283396, -27.106134], [-53.309885, -27.103855], [-53.329945, -27.096856], [-53.369008, -27.072117], [-53.387929, -27.104425], [-53.40217, -27.120457], [-53.420237, -27.127293], [-53.430409, -27.129327], [-53.445912, -27.138198], [-53.454335, -27.140313], [-53.46052, -27.135593], [-53.466786, -27.125339], [-53.47468, -27.116062], [-53.485707, -27.113702], [-53.500437, -27.126967], [-53.500722, -27.149347], [-53.497711, -27.173517], [-53.502105, -27.191827], [-53.518137, -27.195245], [-53.565745, -27.177748], [-53.588124, -27.175144], [-53.606679, -27.184259], [-53.631459, -27.210463], [-53.653635, -27.215997], [-53.655629, -27.187026], [-53.661773, -27.165948], [-53.67748, -27.153985], [-53.686716, -27.154474], [-53.693471, -27.158624], [-53.704213, -27.168308], [-53.72704, -27.179539], [-53.736195, -27.181492], [-53.748891, -27.18198], [-53.759267, -27.179864], [-53.763173, -27.174493], [-53.765207, -27.166681], [-53.769928, -27.157647], [-53.77831, -27.150242], [-53.786122, -27.14837], [-53.807851, -27.153985], [-53.816029, -27.157566], [-53.823232, -27.162286], [-53.831044, -27.166436], [-53.841379, -27.168308], [-53.849477, -27.157403], [-53.858632, -27.140964], [-53.869496, -27.125828], [-53.882924, -27.119806], [-53.891591, -27.126967], [-53.900136, -27.15838], [-53.910268, -27.168308], [-53.926137, -27.165948], [-53.93928, -27.155287], [-53.951568, -27.147638], [-53.964833, -27.153985], [-53.966949, -27.167169], [-53.961781, -27.180678], [-53.962514, -27.191257], [-53.982249, -27.195489], [-53.989166, -27.193699], [-53.993398, -27.189955], [-53.997996, -27.187188], [-54.005849, -27.188165], [-54.011586, -27.193862], [-54.018788, -27.212091], [-54.092519, -27.285089], [-54.128896, -27.288914], [-54.158762, -27.279474], [-54.156646, -27.257664], [-54.165517, -27.250502], [-54.177805, -27.243341], [-54.190175, -27.260756], [-54.218861, -27.329278], [-54.223337, -27.336765], [-54.228627, -27.34295], [-54.232533, -27.351414], [-54.230295, -27.371921], [-54.23233, -27.380548], [-54.239939, -27.383722], [-54.251454, -27.385186], [-54.261952, -27.388604], [-54.26651, -27.397882], [-54.269276, -27.406264], [-54.275624, -27.41603], [-54.282623, -27.424249], [-54.287587, -27.428237], [-54.307607, -27.428725], [-54.322255, -27.419448], [-54.334788, -27.406101], [-54.348459, -27.39422], [-54.346791, -27.426446], [-54.348459, -27.435724], [-54.355092, -27.44614], [-54.364166, -27.453464], [-54.372222, -27.454441], [-54.375722, -27.445652], [-54.379465, -27.422703], [-54.389597, -27.411065], [-54.404978, -27.407403], [-54.445221, -27.408868], [-54.461619, -27.41253], [-54.46524, -27.423272], [-54.448354, -27.445652], [-54.449086, -27.458917], [-54.469309, -27.470147], [-54.534291, -27.487319], [-54.543935, -27.486993], [-54.554514, -27.482924], [-54.558339, -27.477716], [-54.567942, -27.459487], [-54.571278, -27.45558], [-54.579213, -27.454115], [-54.584543, -27.452], [-54.590199, -27.452569], [-54.599192, -27.458998], [-54.606068, -27.46795], [-54.610504, -27.478448], [-54.615956, -27.496515], [-54.626658, -27.515151], [-54.640248, -27.526707], [-54.651967, -27.525811], [-54.65689, -27.507175], [-54.660146, -27.502781], [-54.667144, -27.503757], [-54.674184, -27.509698], [-54.677439, -27.52044], [-54.677195, -27.534112], [-54.677968, -27.541681], [-54.681793, -27.546319], [-54.69107, -27.551202], [-54.700429, -27.553074], [-54.722646, -27.550795], [-54.732655, -27.551202], [-54.774648, -27.563816], [-54.781077, -27.562026], [-54.78246, -27.559991], [-54.788726, -27.552748], [-54.790679, -27.551202], [-54.794423, -27.549168], [-54.792836, -27.544285], [-54.789255, -27.538588], [-54.787262, -27.534112], [-54.792958, -27.523126], [-54.805776, -27.5263], [-54.819651, -27.536147], [-54.828236, -27.544936], [-54.83434, -27.565281], [-54.837758, -27.590346], [-54.845815, -27.611749], [-54.866078, -27.620782], [-54.890492, -27.620538], [-54.899037, -27.623549], [-54.897125, -27.661065], [-54.902333, -27.704441], [-54.907623, -27.726983], [-54.91393, -27.736749], [-54.933665, -27.743829], [-54.985911, -27.78517], [-55.009836, -27.788425], [-55.02831, -27.782892], [-55.0454, -27.774916], [-55.065053, -27.770929], [-55.081899, -27.778171], [-55.072011, -27.794285], [-55.041127, -27.81935], [-55.026479, -27.84002], [-55.030385, -27.850763], [-55.046498, -27.850763], [-55.068471, -27.839207], [-55.078603, -27.843276], [-55.100697, -27.843683], [-55.109446, -27.846612], [-55.112131, -27.852879], [-55.119985, -27.880792], [-55.14037, -27.876642], [-55.162221, -27.858087], [-55.178334, -27.853448], [-55.198435, -27.860528], [-55.213043, -27.876967], [-55.224843, -27.893569], [-55.260976, -27.919122], [-55.270823, -27.922377], [-55.281484, -27.920424], [-55.30248, -27.913914], [-55.314849, -27.914972], [-55.330556, -27.928074], [-55.33373, -27.946466], [-55.338612, -27.963067], [-55.359527, -27.970147], [-55.369862, -27.970636], [-55.377187, -27.973077], [-55.381663, -27.978041], [-55.383127, -27.987237], [-55.382192, -28.00864], [-55.384145, -28.014093], [-55.390614, -28.024265], [-55.43578, -28.070652], [-55.441477, -28.07879], [-55.465566, -28.084975], [-55.476226, -28.086277], [-55.483022, -28.083022], [-55.487294, -28.077081], [-55.493642, -28.073744], [-55.506663, -28.07879], [-55.51061, -28.083917], [-55.520904, -28.106785], [-55.525502, -28.110528], [-55.538564, -28.119155], [-55.544545, -28.124037], [-55.54898, -28.132175], [-55.550445, -28.139825], [-55.55427, -28.145522], [-55.565582, -28.147638], [-55.577789, -28.14422], [-55.580068, -28.136407], [-55.579254, -28.127374], [-55.582387, -28.121026], [-55.605458, -28.116876], [-55.617421, -28.129408], [-55.624582, -28.146173], [-55.63329, -28.154474], [-55.64269, -28.16017], [-55.684804, -28.19614], [-55.748647, -28.215671], [-55.773264, -28.231866], [-55.767323, -28.257501], [-55.755279, -28.265558], [-55.715443, -28.281752], [-55.702219, -28.284845], [-55.687978, -28.28989], [-55.677968, -28.301772], [-55.664296, -28.326511], [-55.67809, -28.373712], [-55.684804, -28.387872], [-55.694936, -28.400079], [-55.70641, -28.407647], [-55.715688, -28.404474], [-55.719553, -28.384454], [-55.735341, -28.365737], [-55.771881, -28.357436], [-55.813222, -28.353204], [-55.843088, -28.346205], [-55.888092, -28.363214], [-55.906321, -28.377862], [-55.901112, -28.39837], [-55.897369, -28.406752], [-55.897613, -28.453302], [-55.898793, -28.460626], [-55.90274, -28.46502], [-55.911366, -28.470554], [-55.91983, -28.473321], [-55.952301, -28.476576], [-55.979848, -28.48919], [-56.012318, -28.496433], [-56.022125, -28.510268], [-56.023671, -28.528253], [-56.02123, -28.546238], [-56.022572, -28.585626], [-56.041575, -28.608901], [-56.103749, -28.647963], [-56.185414, -28.744073], [-56.219228, -28.764093], [-56.266184, -28.771905], [-56.286936, -28.779962], [-56.295522, -28.79575], [-56.301747, -28.88128], [-56.323801, -28.916355], [-56.392323, -28.952162], [-56.41161, -28.991143], [-56.412668, -29.031752], [-56.416493, -29.051202], [-56.4287, -29.069757], [-56.445058, -29.078058], [-56.514027, -29.093683], [-56.54898, -29.109877], [-56.58495, -29.132257], [-56.617991, -29.160821], [-56.644399, -29.19614], [-56.651438, -29.208917], [-56.657053, -29.223321], [-56.65803, -29.237807], [-56.651235, -29.251316], [-56.661366, -29.270847], [-56.677805, -29.313328], [-56.689361, -29.329522], [-56.706207, -29.343683], [-56.718861, -29.351495], [-56.754262, -29.367364], [-56.763417, -29.372735], [-56.770619, -29.37892], [-56.776479, -29.386407], [-56.781565, -29.395359], [-56.783315, -29.405287], [-56.782786, -29.416518], [-56.784169, -29.425714], [-56.800526, -29.433933], [-56.808298, -29.444675], [-56.813629, -29.456964], [-56.815745, -29.466974], [-56.819732, -29.474949], [-56.897939, -29.535577], [-56.9051, -29.549493], [-56.913157, -29.558445], [-56.952382, -29.586277], [-56.966542, -29.600763], [-56.980133, -29.63478], [-57.009592, -29.66253], [-57.014272, -29.673028], [-57.021677, -29.683282], [-57.094879, -29.751886], [-57.113637, -29.766046], [-57.134104, -29.771987], [-57.178212, -29.7728], [-57.220367, -29.778253], [-57.263295, -29.792494], [-57.292307, -29.814955], [-57.309275, -29.848321], [-57.319488, -29.965346], [-57.325917, -29.98089], [-57.41218, -30.039565], [-57.506907, -30.14422], [-57.549387, -30.169854], [-57.569407, -30.176446], [-57.612416, -30.182957], [-57.634674, -30.183526], [-57.643178, -30.193048], [-57.638743, -30.214858], [-57.62442, -30.257989], [-57.631744, -30.296889], [-57.653432, -30.329034], [-57.850331, -30.485203], [-57.877797, -30.514825], [-57.890492, -30.550714], [-57.886464, -30.589776], [-57.864003, -30.628595], [-57.849273, -30.647882], [-57.826975, -30.68963], [-57.818512, -30.711928], [-57.802602, -30.773289], [-57.796742, -30.816095], [-57.795766, -30.857924], [-57.796783, -30.868341], [-57.802602, -30.892429], [-57.807973, -30.907566], [-57.820383, -30.911554], [-57.843577, -30.909112], [-57.886098, -30.918796], [-57.904693, -30.92962], [-57.912424, -30.94728], [-57.906199, -30.958673], [-57.864003, -31.01214], [-57.855946, -31.058933], [-57.87442, -31.09295], [-57.89977, -31.126397], [-57.912424, -31.170424], [-57.905751, -31.21502], [-57.905832, -31.240899], [-57.915598, -31.252374], [-57.93635, -31.290216], [-57.943715, -31.296726], [-57.960194, -31.307957], [-57.96703, -31.314386], [-57.976308, -31.335138], [-57.981191, -31.380385], [-57.990956, -31.399265], [-58.006663, -31.410984], [-58.04426, -31.430515], [-58.063303, -31.444187], [-58.075999, -31.475112], [-58.051584, -31.500665], [-58.014068, -31.525567], [-57.987538, -31.55405], [-57.980295, -31.598647], [-57.989329, -31.642755], [-58.049631, -31.797052], [-58.060048, -31.811375], [-58.084177, -31.819675], [-58.1315, -31.827813], [-58.153554, -31.83587], [-58.169342, -31.84588], [-58.196685, -31.87241], [-58.203359, -31.89308], [-58.19107, -31.9131], [-58.159495, -31.94378], [-58.149729, -31.975112], [-58.146067, -32.017755], [-58.149037, -32.062839], [-58.159495, -32.101495], [-58.18163, -32.132338], [-58.187327, -32.152765], [-58.175893, -32.174168], [-58.107655, -32.251804], [-58.097279, -32.280938], [-58.102284, -32.311212], [-58.165679, -32.3895], [-58.190663, -32.433933], [-58.200429, -32.444675]]]}}]}